[{"OBJECT_NAME":"ONEWEB-0403","OBJECT_ID":"2021-132Q","EPOCH":"2025-09-02T22:12:04.992192","MEAN_MOTION":13.18686228,"ECCENTRICITY":0.00017998,"INCLINATION":87.9169,"RA_OF_ASC_NODE":32.4941,"ARG_OF_PERICENTER":97.4172,"MEAN_ANOMALY":262.7164,"EPHEMERIS_TYPE":0,"CLASSIFICATION_TYPE":"U","NORAD_CAT_ID":50483,"ELEMENT_SET_NO":999,"REV_AT_EPOCH":18373,"BSTAR":-0.00052668466,"MEAN_MOTION_DOT":-1.95e-6,"MEAN_MOTION_DDOT":0},{"OBJECT_NAME":"ONEWEB-0404","OBJECT_ID":"2021-132R","EPOCH":"2025-09-02T22:07:04.035936","MEAN_MOTION":13.11415235,"ECCENTRICITY":0.0002045,"INCLINATION":87.8774,"RA_OF_ASC_NODE":78.3128,"ARG_OF_PERICENTER":92.7802,"MEAN_ANOMALY":267.356,"EPHEMERIS_TYPE":0,"CLASSIFICATION_TYPE":"U","NORAD_CAT_ID":50484,"ELEMENT_SET_NO":999,"REV_AT_EPOCH":17804,"BSTAR":0.0011592128,"MEAN_MOTION_DOT":4.24e-6,"MEAN_MOTION_DDOT":0},{"OBJECT_NAME":"ONEWEB-0405","OBJECT_ID":"2021-132S","EPOCH":"2025-09-02T22:33:28.214496","MEAN_MOTION":13.18685276,"ECCENTRICITY":0.00018802,"INCLINATION":87.9167,"RA_OF_ASC_NODE":32.4769,"ARG_OF_PERICENTER":86.5166,"MEAN_ANOMALY":273.6182,"EPHEMERIS_TYPE":0,"CLASSIFICATION_TYPE":"U","NORAD_CAT_ID":50485,"ELEMENT_SET_NO":999,"REV_AT_EPOCH":18413,"BSTAR":0.00017461379,"MEAN_MOTION_DOT":8.2e-7,"MEAN_MOTION_DDOT":0},{"OBJECT_NAME":"ONEWEB-0406","OBJECT_ID":"2021-132T","EPOCH":"2025-09-02T22:19:12.801792","MEAN_MOTION":13.1868783,"ECCENTRICITY":0.00020117,"INCLINATION":87.917,"RA_OF_ASC_NODE":32.5022,"ARG_OF_PERICENTER":109.5972,"MEAN_ANOMALY":250.5377,"EPHEMERIS_TYPE":0,"CLASSIFICATION_TYPE":"U","NORAD_CAT_ID":50486,"ELEMENT_SET_NO":999,"REV_AT_EPOCH":18376,"BSTAR":0.00013373827,"MEAN_MOTION_DOT":6.6e-7,"MEAN_MOTION_DDOT":0},{"OBJECT_NAME":"ONEWEB-0407","OBJECT_ID":"2021-132U","EPOCH":"2025-09-02T22:09:44.533440","MEAN_MOTION":13.18686036,"ECCENTRICITY":0.0001822,"INCLINATION":87.9169,"RA_OF_ASC_NODE":32.4883,"ARG_OF_PERICENTER":92.3573,"MEAN_ANOMALY":267.7768,"EPHEMERIS_TYPE":0,"CLASSIFICATION_TYPE":"U","NORAD_CAT_ID":50487,"ELEMENT_SET_NO":999,"REV_AT_EPOCH":18370,"BSTAR":9.8897016e-5,"MEAN_MOTION_DOT":5.2e-7,"MEAN_MOTION_DDOT":0},{"OBJECT_NAME":"ONEWEB-0409","OBJECT_ID":"2021-132V","EPOCH":"2025-09-02T22:04:37.589664","MEAN_MOTION":13.11416208,"ECCENTRICITY":0.00018289,"INCLINATION":87.8778,"RA_OF_ASC_NODE":78.2724,"ARG_OF_PERICENTER":97.1352,"MEAN_ANOMALY":262.9984,"EPHEMERIS_TYPE":0,"CLASSIFICATION_TYPE":"U","NORAD_CAT_ID":50488,"ELEMENT_SET_NO":999,"REV_AT_EPOCH":17793,"BSTAR":0.0014877072,"MEAN_MOTION_DOT":5.4e-6,"MEAN_MOTION_DDOT":0},{"OBJECT_NAME":"ONEWEB-0412","OBJECT_ID":"2021-132W","EPOCH":"2025-09-02T20:03:50.978880","MEAN_MOTION":13.18687142,"ECCENTRICITY":0.00018309,"INCLINATION":87.9167,"RA_OF_ASC_NODE":32.5185,"ARG_OF_PERICENTER":84.2743,"MEAN_ANOMALY":275.8598,"EPHEMERIS_TYPE":0,"CLASSIFICATION_TYPE":"U","NORAD_CAT_ID":50489,"ELEMENT_SET_NO":999,"REV_AT_EPOCH":18378,"BSTAR":0.0002566821,"MEAN_MOTION_DOT":1.14e-6,"MEAN_MOTION_DDOT":0},{"OBJECT_NAME":"ONEWEB-0413","OBJECT_ID":"2021-132X","EPOCH":"2025-09-02T22:00:14.820480","MEAN_MOTION":13.18687111,"ECCENTRICITY":0.00016357,"INCLINATION":87.9171,"RA_OF_ASC_NODE":32.5186,"ARG_OF_PERICENTER":83.6911,"MEAN_ANOMALY":276.4407,"EPHEMERIS_TYPE":0,"CLASSIFICATION_TYPE":"U","NORAD_CAT_ID":50490,"ELEMENT_SET_NO":999,"REV_AT_EPOCH":18373,"BSTAR":0.00017947945,"MEAN_MOTION_DOT":8.4e-7,"MEAN_MOTION_DDOT":0},{"OBJECT_NAME":"ONEWEB-0414","OBJECT_ID":"2021-132Y","EPOCH":"2025-09-02T21:38:51.252576","MEAN_MOTION":13.18686912,"ECCENTRICITY":0.00019257,"INCLINATION":87.9167,"RA_OF_ASC_NODE":32.4811,"ARG_OF_PERICENTER":90.4184,"MEAN_ANOMALY":269.7169,"EPHEMERIS_TYPE":0,"CLASSIFICATION_TYPE":"U","NORAD_CAT_ID":50491,"ELEMENT_SET_NO":999,"REV_AT_EPOCH":18376,"BSTAR":0.00023864091,"MEAN_MOTION_DOT":1.07e-6,"MEAN_MOTION_DDOT":0},{"OBJECT_NAME":"ONEWEB-0417","OBJECT_ID":"2021-132Z","EPOCH":"2025-09-02T21:50:43.667232","MEAN_MOTION":13.18687444,"ECCENTRICITY":0.00019134,"INCLINATION":87.9172,"RA_OF_ASC_NODE":32.5122,"ARG_OF_PERICENTER":100.2324,"MEAN_ANOMALY":259.9024,"EPHEMERIS_TYPE":0,"CLASSIFICATION_TYPE":"U","NORAD_CAT_ID":50492,"ELEMENT_SET_NO":999,"REV_AT_EPOCH":18374,"BSTAR":0.0003715993,"MEAN_MOTION_DOT":1.59e-6,"MEAN_MOTION_DDOT":0},{"OBJECT_NAME":"ONEWEB-0418","OBJECT_ID":"2021-132AA","EPOCH":"2025-09-02T22:04:48.960768","MEAN_MOTION":13.18687663,"ECCENTRICITY":0.00021355,"INCLINATION":87.9171,"RA_OF_ASC_NODE":32.496,"ARG_OF_PERICENTER":105.2844,"MEAN_ANOMALY":254.8525,"EPHEMERIS_TYPE":0,"CLASSIFICATION_TYPE":"U","NORAD_CAT_ID":50493,"ELEMENT_SET_NO":999,"REV_AT_EPOCH":18380,"BSTAR":9.2423643e-5,"MEAN_MOTION_DOT":4.9e-7,"MEAN_MOTION_DDOT":0},{"OBJECT_NAME":"ONEWEB-0419","OBJECT_ID":"2021-132AB","EPOCH":"2025-09-02T22:31:07.756608","MEAN_MOTION":13.18687103,"ECCENTRICITY":0.00017415,"INCLINATION":87.9167,"RA_OF_ASC_NODE":32.4936,"ARG_OF_PERICENTER":106.3406,"MEAN_ANOMALY":253.7917,"EPHEMERIS_TYPE":0,"CLASSIFICATION_TYPE":"U","NORAD_CAT_ID":50494,"ELEMENT_SET_NO":999,"REV_AT_EPOCH":18372,"BSTAR":0.00013487931,"MEAN_MOTION_DOT":6.6e-7,"MEAN_MOTION_DDOT":0},{"OBJECT_NAME":"ONEWEB-0420","OBJECT_ID":"2021-132AC","EPOCH":"2025-09-02T21:41:13.413408","MEAN_MOTION":13.18687217,"ECCENTRICITY":0.00014687,"INCLINATION":87.9167,"RA_OF_ASC_NODE":32.5107,"ARG_OF_PERICENTER":87.5289,"MEAN_ANOMALY":272.6011,"EPHEMERIS_TYPE":0,"CLASSIFICATION_TYPE":"U","NORAD_CAT_ID":50495,"ELEMENT_SET_NO":999,"REV_AT_EPOCH":18371,"BSTAR":0.00032739093,"MEAN_MOTION_DOT":1.42e-6,"MEAN_MOTION_DDOT":0},{"OBJECT_NAME":"ONEWEB-0421","OBJECT_ID":"2021-132AD","EPOCH":"2025-09-02T21:31:42.667104","MEAN_MOTION":13.18684962,"ECCENTRICITY":0.00019392,"INCLINATION":87.917,"RA_OF_ASC_NODE":32.5055,"ARG_OF_PERICENTER":88.0691,"MEAN_ANOMALY":272.0663,"EPHEMERIS_TYPE":0,"CLASSIFICATION_TYPE":"U","NORAD_CAT_ID":50496,"ELEMENT_SET_NO":999,"REV_AT_EPOCH":18375,"BSTAR":0.00017542541,"MEAN_MOTION_DOT":8.2e-7,"MEAN_MOTION_DDOT":0},{"OBJECT_NAME":"ONEWEB-0424","OBJECT_ID":"2021-132AE","EPOCH":"2025-09-02T22:23:58.129152","MEAN_MOTION":13.18684925,"ECCENTRICITY":0.0001635,"INCLINATION":87.917,"RA_OF_ASC_NODE":32.4928,"ARG_OF_PERICENTER":110.0981,"MEAN_ANOMALY":250.0327,"EPHEMERIS_TYPE":0,"CLASSIFICATION_TYPE":"U","NORAD_CAT_ID":50497,"ELEMENT_SET_NO":999,"REV_AT_EPOCH":18378,"BSTAR":6.2264823e-5,"MEAN_MOTION_DOT":3.7e-7,"MEAN_MOTION_DDOT":0},{"OBJECT_NAME":"ONEWEB-0426","OBJECT_ID":"2021-132AF","EPOCH":"2025-09-02T21:26:58.647840","MEAN_MOTION":13.18687059,"ECCENTRICITY":0.00024809,"INCLINATION":87.9167,"RA_OF_ASC_NODE":32.4933,"ARG_OF_PERICENTER":91.4794,"MEAN_ANOMALY":268.6623,"EPHEMERIS_TYPE":0,"CLASSIFICATION_TYPE":"U","NORAD_CAT_ID":50498,"ELEMENT_SET_NO":999,"REV_AT_EPOCH":18372,"BSTAR":0.00020318075,"MEAN_MOTION_DOT":9.3e-7,"MEAN_MOTION_DDOT":0},{"OBJECT_NAME":"ONEWEB-0427","OBJECT_ID":"2021-132AG","EPOCH":"2025-09-02T22:21:35.911296","MEAN_MOTION":13.18685339,"ECCENTRICITY":0.00018791,"INCLINATION":87.9167,"RA_OF_ASC_NODE":32.475,"ARG_OF_PERICENTER":100.3713,"MEAN_ANOMALY":259.7631,"EPHEMERIS_TYPE":0,"CLASSIFICATION_TYPE":"U","NORAD_CAT_ID":50499,"ELEMENT_SET_NO":999,"REV_AT_EPOCH":18375,"BSTAR":0.00020200958,"MEAN_MOTION_DOT":9.3e-7,"MEAN_MOTION_DDOT":0},{"OBJECT_NAME":"ONEWEB-0429","OBJECT_ID":"2021-132AH","EPOCH":"2025-09-02T22:02:37.284576","MEAN_MOTION":13.18688178,"ECCENTRICITY":0.0001571,"INCLINATION":87.9171,"RA_OF_ASC_NODE":32.5076,"ARG_OF_PERICENTER":92.4348,"MEAN_ANOMALY":267.6964,"EPHEMERIS_TYPE":0,"CLASSIFICATION_TYPE":"U","NORAD_CAT_ID":50500,"ELEMENT_SET_NO":999,"REV_AT_EPOCH":18372,"BSTAR":5.4331326e-5,"MEAN_MOTION_DOT":3.4e-7,"MEAN_MOTION_DDOT":0},{"OBJECT_NAME":"ONEWEB-0430","OBJECT_ID":"2021-132AJ","EPOCH":"2025-09-02T21:45:58.646592","MEAN_MOTION":13.18686981,"ECCENTRICITY":0.00015091,"INCLINATION":87.9171,"RA_OF_ASC_NODE":32.5042,"ARG_OF_PERICENTER":101.8135,"MEAN_ANOMALY":258.3167,"EPHEMERIS_TYPE":0,"CLASSIFICATION_TYPE":"U","NORAD_CAT_ID":50501,"ELEMENT_SET_NO":999,"REV_AT_EPOCH":18376,"BSTAR":0.00013230473,"MEAN_MOTION_DOT":6.5e-7,"MEAN_MOTION_DDOT":0},{"OBJECT_NAME":"ONEWEB-0432","OBJECT_ID":"2021-132AK","EPOCH":"2025-09-02T22:31:21.332640","MEAN_MOTION":13.18689888,"ECCENTRICITY":0.0002198,"INCLINATION":87.9161,"RA_OF_ASC_NODE":32.4765,"ARG_OF_PERICENTER":119.4714,"MEAN_ANOMALY":240.6638,"EPHEMERIS_TYPE":0,"CLASSIFICATION_TYPE":"U","NORAD_CAT_ID":50502,"ELEMENT_SET_NO":999,"REV_AT_EPOCH":18372,"BSTAR":8.9983926e-5,"MEAN_MOTION_DOT":4.8e-7,"MEAN_MOTION_DDOT":0},{"OBJECT_NAME":"ONEWEB-0440","OBJECT_ID":"2021-132AL","EPOCH":"2025-09-02T22:14:27.432960","MEAN_MOTION":13.18686335,"ECCENTRICITY":0.00017607,"INCLINATION":87.9172,"RA_OF_ASC_NODE":32.4893,"ARG_OF_PERICENTER":80.8039,"MEAN_ANOMALY":279.3293,"EPHEMERIS_TYPE":0,"CLASSIFICATION_TYPE":"U","NORAD_CAT_ID":50503,"ELEMENT_SET_NO":999,"REV_AT_EPOCH":18371,"BSTAR":-0.00038981879,"MEAN_MOTION_DOT":-1.41e-6,"MEAN_MOTION_DDOT":0},{"OBJECT_NAME":"ONEWEB-0450","OBJECT_ID":"2021-132AM","EPOCH":"2025-09-02T22:05:11.857632","MEAN_MOTION":13.18686858,"ECCENTRICITY":0.00014201,"INCLINATION":87.9169,"RA_OF_ASC_NODE":32.516,"ARG_OF_PERICENTER":92.6355,"MEAN_ANOMALY":267.494,"EPHEMERIS_TYPE":0,"CLASSIFICATION_TYPE":"U","NORAD_CAT_ID":50504,"ELEMENT_SET_NO":999,"REV_AT_EPOCH":18374,"BSTAR":0.00014136684,"MEAN_MOTION_DOT":6.9e-7,"MEAN_MOTION_DDOT":0},{"OBJECT_NAME":"ONEWEB-0410","OBJECT_ID":"2022-012A","EPOCH":"2025-09-02T22:49:04.310112","MEAN_MOTION":13.17650911,"ECCENTRICITY":0.00031196,"INCLINATION":87.9039,"RA_OF_ASC_NODE":62.9834,"ARG_OF_PERICENTER":100.6428,"MEAN_ANOMALY":259.5055,"EPHEMERIS_TYPE":0,"CLASSIFICATION_TYPE":"U","NORAD_CAT_ID":51622,"ELEMENT_SET_NO":999,"REV_AT_EPOCH":17587,"BSTAR":0.00020770623,"MEAN_MOTION_DOT":9.4e-7,"MEAN_MOTION_DDOT":0}]
